STARLINK-30271          
1 57669U 23124G   26068.64749266  .00003481  00000+0  12970-3 0  9998
2 57669  53.1609 207.2469 0001531  98.7407 261.3767 15.30174088143551
ION SCV-017             
1 63230U 25052W   26068.71648816  .00006457  00000+0  24539-3 0  9998
2 63230  97.4016 324.7516 0023746  44.9875 315.3282 15.26881798 54851
